NORAD_CAT_ID,OBJECT_NAME,OBJECT_TYPE,EPOCH,MEAN_MOTION,ECCENTRICITY,INCLINATION,RA_OF_ASC_NODE,ARG_OF_PERICENTER,MEAN_ANOMALY,BSTAR,MEAN_MOTION_DOT,MEAN_MOTION_DDOT,TLE_LINE0,TLE_LINE1,TLE_LINE2,SEMIMAJOR_AXIS,PERIOD,APOGEE,PERIGEE,DECAYED
51803.0,STARLINK-3544,PAYLOAD,2022-09-18 09:02:07,15.0881801,0.000194,53.2164,282.7953,56.3283,303.7894,0.00012891,1.763e-05,0.0,0 STARLINK-3544,1 51803U 22017AM  22261.37647705  .00001763  00000-0  12891-3 0  9992,2 51803  53.2164 282.7953 0001940  56.3283 303.7894 15.08818010 32446,6917.948,95.439,541.155,538.471,0.0
51803.0,STARLINK-3544,PAYLOAD,2022-09-19 00:55:58,15.08827348,0.0001934,53.2166,279.8216,53.0649,307.052,0.00010773,1.426e-05,0.0,0 STARLINK-3544,1 51803U 22017AM  22262.03887658  .00001426  00000-0  10773-3 0  9992,2 51803  53.2166 279.8216 0001934  53.0649 307.0520 15.08827348 32548,6917.919,95.438,541.122,538.446,0.0
51803.0,STARLINK-3544,PAYLOAD,2022-09-19 08:52:54,15.08833837,0.0001955999999999,53.2166,278.3354,54.5186,305.5988,0.0001519,2.13e-05,0.0,0 STARLINK-3544,1 51803U 22017AM  22262.37007264  .00002130  00000-0  15190-3 0  9997,2 51803  53.2166 278.3354 0001956  54.5186 305.5988 15.08833837 32597,6917.899,95.438,541.117,538.411,0.0
51803.0,STARLINK-3544,PAYLOAD,2022-09-19 18:25:12,15.08839558,0.000197,53.2164,276.551,54.1741,305.9434,0.00016686,2.368e-05,0.0,0 STARLINK-3544,1 51803U 22017AM  22262.76750933  .00002368  00000-0  16686-3 0  9992,2 51803  53.2164 276.5510 0001970  54.1741 305.9434 15.08839558 32651,6917.882,95.438,541.11,538.384,0.0
51803.0,STARLINK-3544,PAYLOAD,2022-09-20 00:46:45,15.08844577,0.0001978,53.2164,275.3616,54.177,305.9405,0.00014706,2.053e-05,0.0,0 STARLINK-3544,1 51803U 22017AM  22263.03246665  .00002053  00000-0  14706-3 0  9997,2 51803  53.2164 275.3616 0001978  54.1770 305.9405 15.08844577 32694,6917.866,95.437,541.1,538.363,0.0
51803.0,STARLINK-3544,PAYLOAD,2022-09-20 07:08:17,15.08845617,0.0001988,53.2164,274.1721,54.6212,305.4966,0.00014402,2.005e-05,0.0,0 STARLINK-3544,1 51803U 22017AM  22263.29742517  .00002005  00000-0  14402-3 0  9992,2 51803  53.2164 274.1721 0001988  54.6212 305.4966 15.08845617 32733,6917.863,95.437,541.1030000000002,538.3530000000002,0.0
51803.0,STARLINK-3544,PAYLOAD,2022-09-20 23:02:09,15.08844864,0.0001695,53.2168,271.1971,63.4943,296.6223,-3.1307e-05,-7.86e-06,0.0,0 STARLINK-3544,1 51803U 22017AM  22263.95983111 -.00000786  00000-0 -31307-4 0  9992,2 51803  53.2168 271.1971 0001695  63.4943 296.6223 15.08844864 32836,6917.866,95.437,540.903,538.558,0.0
51803.0,STARLINK-3544,PAYLOAD,2022-09-21 10:09:50,15.08853941,0.000204,53.216,269.1167,46.2513,313.8647,6.916600000000001e-05,8.13e-06,0.0,0 STARLINK-3544,1 51803U 22017AM  22264.42349945  .00000813  00000-0  69166-4 0  9999,2 51803  53.2160 269.1167 0002040  46.2513 313.8647 15.08853941 32905,6917.8380000000025,95.437,541.114,538.2919999999998,0.0
51803.0,STARLINK-3544,PAYLOAD,2022-09-22 06:49:51,15.08834347,0.0001341999999999,53.2193,265.252,7.0307,353.0703,-5.5161e-05,-1.166e-05,0.0,0 STARLINK-3544,1 51803U 22017AM  22265.28462946 -.00001166  00000-0 -55161-4 0  9995,2 51803  53.2193 265.2520 0001342   7.0307 353.0703 15.08834347 33034,6917.898,95.438,540.691,538.8340000000002,0.0
51803.0,STARLINK-3544,PAYLOAD,2022-09-23 03:29:52,15.08845259,0.0001784,53.2146,261.3837,43.5796,316.5336,-7.3712e-05,-1.461e-05,0.0,0 STARLINK-3544,1 51803U 22017AM  22266.14574368 -.00001461  00000-0 -73712-4 0  9993,2 51803  53.2146 261.3837 0001784  43.5796 316.5336 15.08845259 33161,6917.864000000001,95.437,540.9630000000002,538.495,0.0
51803.0,STARLINK-3544,PAYLOAD,2022-09-23 06:40:39,15.08838334,0.000178,53.2162,260.7897,43.9423,316.1711,-0.00012968,-2.351e-05,0.0,0 STARLINK-3544,1 51803U 22017AM  22266.27822939 -.00002351  00000-0 -12968-3 0  9991,2 51803  53.2162 260.7897 0001780  43.9423 316.1711 15.08838334 33186,6917.885,95.438,540.982,538.519,0.0
51803.0,STARLINK-3544,PAYLOAD,2022-09-24 06:31:26,15.08834564,0.0001813,53.2164,256.3305,46.9494,313.165,6.7349e-05,7.84e-06,0.0,0 STARLINK-3544,1 51803U 22017AM  22267.27182966  .00000784  00000-0  67349-4 0  9991,2 51803  53.2164 256.3305 0001813  46.9494 313.1650 15.08834564 33338,6917.897,95.438,541.016,538.508,0.0
51803.0,STARLINK-3544,PAYLOAD,2022-09-25 03:11:26,15.08836733,0.0001847,53.217,252.4657,52.7582,307.3579,6.615600000000001e-05,7.65e-06,0.0,0 STARLINK-3544,1 51803U 22017AM  22268.13295008  .00000765  00000-0  66156-4 0  9993,2 51803  53.2170 252.4657 0001847  52.7582 307.3579 15.08836733 33461,6917.89,95.438,541.033,538.4780000000002,0.0
51803.0,STARLINK-3544,PAYLOAD,2022-09-25 06:22:13,15.08831924,0.0001798,53.2172,251.8728,57.3074,302.8091,9.7118e-05,1.258e-05,0.0,0 STARLINK-3544,1 51803U 22017AM  22268.26543215  .00001258  00000-0  97118-4 0  9993,2 51803  53.2172 251.8728 0001798  57.3074 302.8091 15.08831924 33485,6917.905,95.438,541.014,538.526,0.0
51803.0,STARLINK-3544,PAYLOAD,2022-09-26 04:37:37,15.08839823,0.0001761,53.2167,247.7091,52.7699,307.3454,8.7381e-06,-1.49e-06,0.0,0 STARLINK-3544,1 51803U 22017AM  22269.19279402 -.00000149  00000-0  87381-5 0  9991,2 51803  53.2167 247.7091 0001761  52.7699 307.3454 15.08839823 33623,6917.880999999999,95.438,540.964,538.528,0.0
51803.0,STARLINK-3544,PAYLOAD,2022-09-26 06:13:00,15.08838299,0.0001779,53.2166,247.4127,50.056,310.0589,-9.8992e-06,-4.46e-06,0.0,0 STARLINK-3544,1 51803U 22017AM  22269.25903576 -.00000446  00000-0 -98992-5 0  9995,2 51803  53.2166 247.4127 0001779  50.0560 310.0589 15.08838299 33633,6917.886,95.438,540.981,538.52,0.0
51803.0,STARLINK-3544,PAYLOAD,2022-09-26 15:45:19,15.08836985,0.0001708,53.2165,245.6248,50.2699,309.8444,-1.1019000000000001e-08,-2.88e-06,0.0,0 STARLINK-3544,1 51803U 22017AM  22269.65647603 -.00000288  00000-0 -11019-7 0  9996,2 51803  53.2165 245.6248 0001708  50.2699 309.8444 15.08836985 33695,6917.89,95.438,540.936,538.573,0.0
51803.0,STARLINK-3544,PAYLOAD,2022-09-27 04:28:24,15.08843217,0.0001749,53.2167,243.2461,49.2087,310.9057,7.4555e-05,8.99e-06,0.0,0 STARLINK-3544,1 51803U 22017AM  22270.18638939  .00000899  00000-0  74555-4 0  9995,2 51803  53.2167 243.2461 0001749  49.2087 310.9057 15.08843217 33770,6917.871,95.437,540.945,538.526,0.0
51803.0,STARLINK-3544,PAYLOAD,2022-09-27 15:36:06,15.08838288,0.0001804,53.2165,241.1648,49.5401,310.5748,9.5665e-06,-1.36e-06,0.0,0 STARLINK-3544,1 51803U 22017AM  22270.65007441 -.00000136  00000-0  95665-5 0  9996,2 51803  53.2165 241.1648 0001804  49.5401 310.5748 15.08838288 33840,6917.886,95.438,540.999,538.503,0.0
51803.0,STARLINK-3544,PAYLOAD,2022-09-28 04:19:10,15.08846155,0.0001807,53.2163,238.7849,50.8048,309.3104,0.0001151,1.544e-05,0.0,0 STARLINK-3544,1 51803U 22017AM  22271.17998463  .00001544  00000-0  11510-3 0  9995,2 51803  53.2163 238.7849 0001807  50.8048 309.3104 15.08846155 33921,6917.861999999999,95.437,540.977,538.477,0.0
51803.0,STARLINK-3544,PAYLOAD,2022-09-29 00:59:12,15.088366,0.0001875,53.2163,234.9198,40.7824,319.3308,-8.1862e-05,-1.591e-05,0.0,0 STARLINK-3544,1 51803U 22017AM  22272.04111199 -.00001591  00000-0 -81862-4 0  9997,2 51803  53.2163 234.9198 0001875  40.7824 319.3308 15.08836600 34057,6917.891,95.438,541.053,538.4590000000002,0.0
51803.0,STARLINK-3544,PAYLOAD,2022-09-29 07:20:45,15.08807955,0.0001836,53.2168,233.7298,52.6889,307.427,5.974899999999999e-05,6.62e-06,0.0,0 STARLINK-3544,1 51803U 22017AM  22272.30608636  .00000662  00000-0  59749-4 0  9998,2 51803  53.2168 233.7298 0001836  52.6889 307.4270 15.08807955 34091,6917.978,95.44,541.113,538.573,0.0
51803.0,STARLINK-3544,PAYLOAD,2022-09-30 02:25:23,15.08834576,0.0001961,53.2163,230.1618,50.9863,309.1303,-7.2265e-05,-1.438e-05,0.0,0 STARLINK-3544,1 51803U 22017AM  22273.10096082 -.00001438  00000-0 -72265-4 0  9995,2 51803  53.2163 230.1618 0001961  50.9863 309.1303 15.08834576 34214,6917.897,95.438,541.119,538.405,0.0
51803.0,STARLINK-3544,PAYLOAD,2022-09-30 07:11:32,15.08839755,0.0002094,53.2173,229.2709,46.5926,313.524,-3.5977e-05,-8.61e-06,0.0,0 STARLINK-3544,1 51803U 22017AM  22273.29967677 -.00000861  00000-0 -35977-4 0  9990,2 51803  53.2173 229.2709 0002094  46.5926 313.5240 15.08839755 34240,6917.880999999999,95.438,541.195,538.298,0.0
51803.0,STARLINK-3544,PAYLOAD,2022-10-01 03:51:31,15.08845717,0.0002163,53.2163,225.4055,39.955,320.1601,0.00021769,3.179e-05,0.0,0 STARLINK-3544,1 51803U 22017AM  22274.16078311  .00003179  00000-0  21769-3 0  9991,2 51803  53.2163 225.4055 0002163  39.9550 320.1601 15.08845717 34371,6917.863,95.437,541.224,538.232,0.0
51803.0,STARLINK-3544,PAYLOAD,2022-10-01 07:02:18,15.0884109,0.0002024,53.217,224.8097,49.4082,310.7086,0.0001554999999999,2.188e-05,0.0,0 STARLINK-3544,1 51803U 22017AM  22274.29326770  .00002188  00000-0  15550-3 0  9990,2 51803  53.2170 224.8097 0002024  49.4082 310.7086 15.08841090 34394,6917.877,95.437,541.1419999999998,538.342,0.0
51803.0,STARLINK-3544,PAYLOAD,2022-10-02 02:06:56,15.08840095,0.0001679,53.2173,221.2403,52.0857,308.0287,8.2477e-05,1.025e-05,0.0,0 STARLINK-3544,1 51803U 22017AM  22275.08815140  .00001025  00000-0  82477-4 0  9994,2 51803  53.2173 221.2403 0001679  52.0857 308.0287 15.08840095 34515,6917.88,95.438,540.9069999999998,538.5840000000002,0.0
51803.0,STARLINK-3544,PAYLOAD,2022-10-02 05:17:42,15.08836707,0.0001661,53.2173,220.6455,56.9942,303.121,5.235600000000001e-05,5.45e-06,0.0,0 STARLINK-3544,1 51803U 22017AM  22275.22063440  .00000545  00000-0  52356-4 0  9997,2 51803  53.2173 220.6455 0001661  56.9942 303.1210 15.08836707 34533,6917.89,95.438,540.905,538.606,0.0
51803.0,STARLINK-3544,PAYLOAD,2022-10-03 03:33:06,15.08852346,0.0001559,53.2164,216.4832,57.7848,302.3295,-1.0853e-05,-4.61e-06,0.0,0 STARLINK-3544,1 51803U 22017AM  22276.14798983 -.00000461  00000-0 -10853-4 0  9991,2 51803  53.2164 216.4832 0001559  57.7848 302.3295 15.08852346 34671,6917.843000000003,95.437,540.786,538.629,0.0
